{"index":{"_index": "nhs"}
{"name":"2gether NHS Foundation Trust","postcode":"GL1 1LY","trustlocation":[51.860423,-2.24469]}
{"index":{"_index": "nhs"}
{"name":"5 Boroughs Partnership NHS Foundation Trust","postcode":"WA2 8WA","trustlocation":[53.42952,-2.606863]}
{"index":{"_index": "nhs"}
{"name":"Aintree University Hospitals NHS Foundation Trust","postcode":"L9 7AL","trustlocation":[53.466327,-2.931104]}
{"index":{"_index": "nhs"}
{"name":"Airedale NHS Foundation Trust","postcode":"BD20 6TD","trustlocation":[53.898018,-1.962695]}
{"index":{"_index": "nhs"}
{"name":"Alder Hey Children's NHS Foundation Trust","postcode":"L12 2AP","trustlocation":[53.420247,-2.898723]}
{"index":{"_index": "nhs"}
{"name":"Ashford and St Peter's Hospitals NHS Foundation Trust","postcode":"KT16 0PZ","trustlocation":[51.377832,-0.52706]}
{"index":{"_index": "nhs"}
{"name":"Barnsley Hospital NHS Foundation Trust","postcode":"S75 2EP","trustlocation":[53.559134,-1.499493]}
{"index":{"_index": "nhs"}
{"name":"Basildon & Thurrock University Hospitals NHS Foundation Trust","postcode":"SS16 5NL","trustlocation":[51.557676,0.450557]}
{"index":{"_index": "nhs"}
{"name":"Berkshire Healthcare NHS Foundation Trust","postcode":"RG12 1BQ","trustlocation":[51.416855,-0.754693]}
{"index":{"_index": "nhs"}
{"name":"Birmingham and Solihull Mental Health NHS Foundation Trust","postcode":"B1 3RB","trustlocation":[52.484117,-1.917317]}
{"index":{"_index": "nhs"}
{"name":"Birmingham Children's Hospital NHS Foundation Trust","postcode":"B4 6NH","trustlocation":[52.484898,-1.893754]}
{"index":{"_index": "nhs"}
{"name":"Birmingham Women's NHS Foundation Trust","postcode":"B15 2TG","trustlocation":[52.453188,-1.942243]}
{"index":{"_index": "nhs"}
{"name":"Blackpool Teaching Hospitals NHS Foundation Trust","postcode":"FY3 8NR","trustlocation":[53.820665,-3.01628]}
{"index":{"_index": "nhs"}
{"name":"Bolton NHS Foundation Trust","postcode":"BL4 0JR","trustlocation":[53.553961,-2.429894]}
{"index":{"_index": "nhs"}
{"name":"Bradford District Care NHS Foundation Trust ","postcode":"BD18 3LD","trustlocation":[53.839677,-1.788605]}
{"index":{"_index": "nhs"}
{"name":"Bradford Teaching Hospitals NHS Foundation Trust","postcode":"BD9 6RJ","trustlocation":[53.805983,-1.794697]}
{"index":{"_index": "nhs"}
{"name":"Bridgewater Community Healthcare NHS Foundation Trust","postcode":"WN3 6PR","trustlocation":[53.528896,-2.658217]}
{"index":{"_index": "nhs"}
{"name":"Burton Hospitals NHS Foundation Trust","postcode":"DE13 0RB","trustlocation":[52.817778,-1.656384]}
{"index":{"_index": "nhs"}
{"name":"Calderdale and Huddersfield NHS Foundation Trust","postcode":"HD3 3EA","trustlocation":[53.655477,-1.816338]}
{"index":{"_index": "nhs"}
{"name":"Calderstones Partnership NHS Foundation Trust","postcode":"BB7 9PE","trustlocation":[53.83038,-2.423468]}
{"index":{"_index": "nhs"}
{"name":"Cambridge University Hospitals NHS Foundation Trust","postcode":"CB2 2QQ","trustlocation":[52.495956,-1.894214]}
{"index":{"_index": "nhs"}
{"name":"Cambridgeshire and Peterborough NHS Foundation Trust","postcode":"CB21 5EF","trustlocation":[52.185213,0.188175]}
{"index":{"_index": "nhs"}
{"name":"Camden and Islington NHS Foundation Trust","postcode":"NW1 0PE","trustlocation":[51.536651,-0.131658]}
{"index":{"_index": "nhs"}
{"name":"Central and North West London NHS Foundation Trust","postcode":"NW1 2PL","trustlocation":[51.526796,-0.139082]}
{"index":{"_index": "nhs"}
{"name":"Central Manchester University Hospitals NHS Foundation Trust","postcode":"M13 9WL","trustlocation":[53.46244,-2.227711]}
{"index":{"_index": "nhs"}
{"name":"Chelsea and Westminster NHS Foundation Trust","postcode":"SW10 9NH","trustlocation":[51.484309,-0.181644]}
{"index":{"_index": "nhs"}
{"name":"Cheshire and Wirral Partnership NHS Foundation Trust","postcode":"CH2 1BQ","trustlocation":[53.211549,-2.898826]}
{"index":{"_index": "nhs"}
{"name":"Chesterfield Royal Hospital NHS Foundation Trust","postcode":"S44 5BL","trustlocation":[53.236216,-1.400052]}
{"index":{"_index": "nhs"}
{"name":"City Hospitals Sunderland NHS Foundation Trust","postcode":"SR4 7TP","trustlocation":[54.903066,-1.411018]}
{"index":{"_index": "nhs"}
{"name":"Colchester Hospital University NHS Foundation Trust","postcode":"CO4 5JL","trustlocation":[51.910163,0.899182]}
{"index":{"_index": "nhs"}
{"name":"Cornwall Partnership NHS Foundation Trust","postcode":"PL31 1FB","trustlocation":[50.468818,-4.735631]}
{"index":{"_index": "nhs"}
{"name":"Countess of Chester Hospital NHS Foundation Trust","postcode":"CH2 1UL","trustlocation":[53.211772,-2.899025]}
{"index":{"_index": "nhs"}
{"name":"County Durham and Darlington NHS Foundation Trust","postcode":"DL3 6HX","trustlocation":[54.530377,-1.563733]}
{"index":{"_index": "nhs"}
{"name":"Cumbria Partnership NHS Foundation Trust","postcode":"CA1 3SX","trustlocation":[54.874919,-2.883909]}
{"index":{"_index": "nhs"}
{"name":"Derby Teaching Hospitals NHS Foundation Trust","postcode":"DE22 3NE","trustlocation":[52.911195,-1.514514]}
{"index":{"_index": "nhs"}
{"name":"Derbyshire Community Health Services NHS Foundation Trust","postcode":"DE45 1AD","trustlocation":[53.218794,-1.67234]}
{"index":{"_index": "nhs"}
{"name":"Derbyshire Healthcare NHS Foundation Trust","postcode":"DE22 3LZ","trustlocation":[52.917409,-1.514951]}
{"index":{"_index": "nhs"}
{"name":"Doncaster & Bassetlaw Hospitals NHS Foundation Trust","postcode":"DN2 5LT","trustlocation":[53.530752,-1.109226]}
{"index":{"_index": "nhs"}
{"name":"Dorset County Hospital NHS Foundation Trust","postcode":"DT1 2JY","trustlocation":[50.712944,-2.446937]}
{"index":{"_index": "nhs"}
{"name":"Dorset Healthcare University NHS Foundation Trust","postcode":"BH1 4JQ","trustlocation":[50.729269,-1.841474]}
{"index":{"_index": "nhs"}
{"name":"East Kent Hospitals University NHS Foundation Trust","postcode":"CT1 3NG","trustlocation":[51.266587,1.087083]}
{"index":{"_index": "nhs"}
{"name":"East London NHS Foundation Trust","postcode":"E1 6LP","trustlocation":[51.516329,-0.0723]}
{"index":{"_index": "nhs"}
{"name":"Frimley Health NHS Foundation Trust","postcode":"GU16 7UJ","trustlocation":[51.319667,-0.742029]}
{"index":{"_index": "nhs"}
{"name":"Gateshead Health NHS Foundation Trust","postcode":"NE9 6SX","trustlocation":[54.939383,-1.580781]}
{"index":{"_index": "nhs"}
{"name":"Gloucestershire Hospitals NHS Foundation Trust","postcode":"GL53 7AG","trustlocation":[51.891046,-2.07053]}
{"index":{"_index": "nhs"}
{"name":"Great Ormond Street Hospital for Children NHS Foundation Trust","postcode":"WC1N 3JH","trustlocation":[51.52221,-0.119924]}
{"index":{"_index": "nhs"}
{"name":"Great Western Hospitals NHS Foundation Trust","postcode":"SN3 6BB","trustlocation":[51.538531,-1.7272]}
{"index":{"_index": "nhs"}
{"name":"Greater Manchester West Mental Health NHS Foundation Trust","postcode":"M25 3BL","trustlocation":[53.536752,-2.291466]}
{"index":{"_index": "nhs"}
{"name":"Guy's & St Thomas' Hospital NHS Foundation Trust","postcode":"SE1 7EH","trustlocation":[51.497959,-0.118905]}
{"index":{"_index": "nhs"}
{"name":"Hampshire Hospitals NHS Foundation Trust","postcode":"RG24 9NA","trustlocation":[51.280635,-1.109918]}
{"index":{"_index": "nhs"}
{"name":"Harrogate and District NHS Foundation Trust","postcode":"HG2 7SX","trustlocation":[53.993809,-1.517574]}
{"index":{"_index": "nhs"}
{"name":"Heart of England NHS Foundation Trust","postcode":"B9 5SS","trustlocation":[52.480221,-1.829966]}
{"index":{"_index": "nhs"}
{"name":"Heatherwood and Wexham Park Hospitals NHS Foundation Trust","postcode":"SL2 4HL","trustlocation":[51.532008,-0.573992]}
{"index":{"_index": "nhs"}
{"name":"Hertfordshire Partnership NHS Foundation Trust","postcode":"AL10 8YE","trustlocation":[51.766545,-0.217092]}
{"index":{"_index": "nhs"}
{"name":"Homerton University Hospital NHS Foundation Trust","postcode":"E9 6SR","trustlocation":[51.550634,-0.046099]}
{"index":{"_index": "nhs"}
{"name":"Humber NHS Foundation Trust","postcode":"HU10 6ED","trustlocation":[53.771972,-0.444478]}
{"index":{"_index": "nhs"}
{"name":"James Paget University Hospitals NHS Foundation Trust","postcode":"NR31 6LA","trustlocation":[52.561669,1.71798]}
{"index":{"_index": "nhs"}
{"name":"Kent Community Health NHS Foundation Trust","postcode":"ME16 9NT","trustlocation":[51.278404,0.478723]}
{"index":{"_index": "nhs"}
{"name":"Kettering General Hospital NHS Foundation Trust","postcode":"NN16 8UZ","trustlocation":[52.402784,-0.741293]}
{"index":{"_index": "nhs"}
{"name":"King�s College Hospital NHS Foundation Trust","postcode":"SE5 9RS","trustlocation":[51.468077,-0.093916]}
{"index":{"_index": "nhs"}
{"name":"Kingston Hospital NHS Foundation Trust","postcode":"KT2 7QB","trustlocation":[51.414285,-0.28309]}
{"index":{"_index": "nhs"}
{"name":"Lancashire Care NHS Foundation Trust","postcode":"PR5 6AW","trustlocation":[53.719502,-2.638626]}
{"index":{"_index": "nhs"}
{"name":"Lancashire Teaching Hospitals NHS Foundation Trust","postcode":"PR2 9HT","trustlocation":[53.791354,-2.707404]}
{"index":{"_index": "nhs"}
{"name":"Leeds and York Partnership NHS Foundation Trust","postcode":"LS15 8ZB","trustlocation":[53.796824,-1.426439]}
{"index":{"_index": "nhs"}
{"name":"Lincolnshire Partnership NHS Foundation Trust","postcode":"NG34 8GG","trustlocation":[53.008852,-0.392521]}
{"index":{"_index": "nhs"}
{"name":"Liverpool Heart and Chest Hospital NHS Foundation Trust","postcode":"L14 3PE","trustlocation":[53.411156,-2.89799]}
{"index":{"_index": "nhs"}
{"name":"Liverpool Women's NHS Foundation Trust","postcode":"L8 7SS","trustlocation":[53.398466,-2.960077]}
{"index":{"_index": "nhs"}
{"name":"Luton and Dunstable Hospital NHS Foundation Trust","postcode":"LU4 0DZ","trustlocation":[51.895406,-0.476044]}
{"index":{"_index": "nhs"}
{"name":"Medway NHS Foundation Trust","postcode":"ME7 5NY","trustlocation":[51.379861,0.542062]}
{"index":{"_index": "nhs"}
{"name":"Mid Cheshire Hospitals NHS Foundation Trust","postcode":"CW1 4QJ","trustlocation":[53.117689,-2.475863]}
{"index":{"_index": "nhs"}
{"name":"Mid Staffordshire NHS Foundation Trust","postcode":"ST16 3SA","trustlocation":[52.811295,-2.097785]}
{"index":{"_index": "nhs"}
{"name":"Milton Keynes University Hospital NHS Foundation Trust","postcode":"MK6 5LD","trustlocation":[52.026375,-0.735796]}
{"index":{"_index": "nhs"}
{"name":"Moorfields Eye Hospital NHS Foundation Trust","postcode":"EC1V 2PD","trustlocation":[51.527246,-0.089889]}
{"index":{"_index": "nhs"}
{"name":"Norfolk and Norwich University Hospitals NHS Foundation Trust","postcode":"NR4 7UY","trustlocation":[52.618084,1.221067]}
{"index":{"_index": "nhs"}
{"name":"Norfolk and Suffolk NHS Foundation Trust","postcode":"NR6 5BE","trustlocation":[52.659529,1.250872]}
{"index":{"_index": "nhs"}
{"name":"North East Ambulance Service NHS Foundation Trust","postcode":"NE15 8NY","trustlocation":[54.968843,-1.7117]}
{"index":{"_index": "nhs"}
{"name":"North East London NHS Foundation Trust","postcode":"IG3 8XJ","trustlocation":[51.577993,0.110488]}
{"index":{"_index": "nhs"}
{"name":"North Essex Partnership University NHS Foundation Trust","postcode":"CM2 0QX","trustlocation":[51.729808,0.467157]}
{"index":{"_index": "nhs"}
{"name":"North Tees and Hartlepool NHS Foundation Trust","postcode":"TS19 8PE","trustlocation":[54.582859,-1.347581]}
{"index":{"_index": "nhs"}
{"name":"Northamptonshire Healthcare NHS Foundation Trust","postcode":"NN15 7PW","trustlocation":[52.394101,-0.7222]}
{"index":{"_index": "nhs"}
{"name":"Northern Lincolnshire and Goole Hospitals NHS Foundation Trust","postcode":"DN33 2BA","trustlocation":[53.544858,-0.096229]}
{"index":{"_index": "nhs"}
{"name":"Northumberland| Tyne & Wear NHS Foundation Trust","postcode":"NE3 3XT","trustlocation":[55.00649,-1.6331]}
{"index":{"_index": "nhs"}
{"name":"Northumbria Healthcare NHS Foundation Trust","postcode":"NE29 8NH","trustlocation":[55.025243,-1.46734]}
{"index":{"_index": "nhs"}
{"name":"Nottinghamshire Healthcare NHS Foundation Trust ","postcode":"NG3 6AA","trustlocation":[52.979274,-1.12643]}
{"index":{"_index": "nhs"}
{"name":"Oxford Health NHS Foundation Trust","postcode":"OX4 4XN","trustlocation":[51.717424,-1.229479]}
{"index":{"_index": "nhs"}
{"name":"Oxford University Hospitals NHS Foundation Trust","postcode":"OX3 9DU","trustlocation":[51.763873,-1.219806]}
{"index":{"_index": "nhs"}
{"name":"Oxleas NHS Foundation Trust","postcode":"DA2 7WG","trustlocation":[51.434794,0.174741]}
{"index":{"_index": "nhs"}
{"name":"Papworth Hospital NHS Foundation Trust","postcode":"CB23 3RE","trustlocation":[52.248642,-0.115586]}
{"index":{"_index": "nhs"}
{"name":"Pennine Care NHS Foundation Trust","postcode":"OL6 7SR","trustlocation":[53.485814,-2.099982]}
{"index":{"_index": "nhs"}
{"name":"Peterborough and Stamford Hospitals NHS Foundation Trust","postcode":"PE3 9GZ","trustlocation":[52.583922,-0.279386]}
{"index":{"_index": "nhs"}
{"name":"Poole Hospital NHS Foundation Trust","postcode":"BH15 2JB","trustlocation":[50.721991,-1.973117]}
{"index":{"_index": "nhs"}
{"name":"Queen Elizabeth Hospital King's Lynn NHS Foundation Trust","postcode":"PE30 4ET","trustlocation":[52.756772,0.446984]}
{"index":{"_index": "nhs"}
{"name":"Queen Victoria Hospital NHS Foundation Trust","postcode":"RH19 3DZ","trustlocation":[51.135073,-0.0029]}
{"index":{"_index": "nhs"}
{"name":"Rotherham Doncaster and South Humber NHS foundation trust","postcode":"DN4 8QN","trustlocation":[53.494814,-1.145976]}
{"index":{"_index": "nhs"}
{"name":"Royal Berkshire NHS Foundation Trust","postcode":"RG1 5AN","trustlocation":[51.451023,-0.95933]}
{"index":{"_index": "nhs"}
{"name":"Royal Brompton and Harefield NHS Foundation Trust","postcode":"SW3 6NP","trustlocation":[51.489743,-0.170855]}
{"index":{"_index": "nhs"}
{"name":"Royal Devon and Exeter NHS Foundation Trust","postcode":"EX2 5DW","trustlocation":[50.716709,-3.506681]}
{"index":{"_index": "nhs"}
{"name":"Royal Free London NHS Foundation Trust","postcode":"NW3 2QG","trustlocation":[51.553224,-0.165324]}
{"index":{"_index": "nhs"}
{"name":"Royal National Hospital For Rheumatic Diseases NHS Foundation Trust","postcode":"BA1 1RL","trustlocation":[51.382261,-2.361437]}
{"index":{"_index": "nhs"}
{"name":"Royal Surrey County Hospital NHS Foundation Trust","postcode":"GU2 7XX","trustlocation":[51.241017,-0.607463]}
{"index":{"_index": "nhs"}
{"name":"Royal United Hospitals Bath NHS Foundation Trust","postcode":"BA1 3NG","trustlocation":[51.391669,-2.391218]}
{"index":{"_index": "nhs"}
{"name":"Salford Royal NHS Foundation Trust","postcode":"M6 8HD","trustlocation":[53.487548,-2.323425]}
{"index":{"_index": "nhs"}
{"name":"Salisbury NHS Foundation Trust","postcode":"SP2 8BJ","trustlocation":[51.043949,-1.789823]}
{"index":{"_index": "nhs"}
{"name":"Sheffield Children's NHS Foundation Trust","postcode":"S10 2TH","trustlocation":[53.380602,-1.490629]}
{"index":{"_index": "nhs"}
{"name":"Sheffield Health and Social Care NHS Foundation Trust","postcode":"S10 3TH","trustlocation":[53.364487,-1.537421]}
{"index":{"_index": "nhs"}
{"name":"Sheffield Teaching Hospitals NHS Foundation Trust","postcode":"S10 2SB","trustlocation":[53.378433,-1.496457]}
{"index":{"_index": "nhs"}
{"name":"Sherwood Forest Hospitals NHS Foundation Trust","postcode":"NG17 4JL","trustlocation":[53.134342,-1.232285]}
{"index":{"_index": "nhs"}
{"name":"Somerset Partnership NHS Foundation Trust","postcode":"TA6 4RN","trustlocation":[51.148595,-2.994782]}
{"index":{"_index": "nhs"}
{"name":"South Central Ambulance Service NHS Foundation Trust","postcode":"OX26 6HR","trustlocation":[51.891654,-1.149604]}
{"index":{"_index": "nhs"}
{"name":"South East Coast Ambulance Service NHS Foundation Trust","postcode":"SM7 2AS","trustlocation":[51.322233,-0.208972]}
{"index":{"_index": "nhs"}
{"name":"South Essex Partnership University NHS Foundation Trust","postcode":"SS11 7XX","trustlocation":[51.635049,0.545023]}
{"index":{"_index": "nhs"}
{"name":"South London and Maudsley NHS Foundation Trust","postcode":"SE5 8AZ","trustlocation":[51.468739,-0.091441]}
{"index":{"_index": "nhs"}
{"name":"South Staffordshire and Shropshire Healthcare NHS Foundation Trust","postcode":"ST16 3AG","trustlocation":[52.810987,-2.110514]}
{"index":{"_index": "nhs"}
{"name":"South Tees Hospitals NHS Foundation Trust","postcode":"TS4 3BW","trustlocation":[54.551757,-1.214805]}
{"index":{"_index": "nhs"}
{"name":"South Tyneside NHS Foundation Trust","postcode":"NE34 0PL","trustlocation":[54.971875,-1.42993]}
{"index":{"_index": "nhs"}
{"name":"South Warwickshire NHS Foundation Trust","postcode":"CV34 5BW","trustlocation":[52.289953,-1.583215]}
{"index":{"_index": "nhs"}
{"name":"South West Yorkshire Partnership NHS foundation trust","postcode":"WF1 3SP","trustlocation":[53.697342,-1.494054]}
{"index":{"_index": "nhs"}
{"name":"South Western Ambulance Service NHS Foundation Trust","postcode":"EX2 7HY","trustlocation":[50.720175,-3.464745]}
{"index":{"_index": "nhs"}
{"name":"Southend University Hospital NHS Foundation Trust","postcode":"SS0 0RY","trustlocation":[51.553836,0.688617]}
{"index":{"_index": "nhs"}
{"name":"Southern Health NHS Foundation Trust","postcode":"SO40 2RZ","trustlocation":[50.931302,-1.530053]}
{"index":{"_index": "nhs"}
{"name":"St George�s University Hospitals NHS Foundation Trust","postcode":"SW17 0QT","trustlocation":[51.426719,-0.175746]}
{"index":{"_index": "nhs"}
{"name":"Stockport NHS Foundation Trust","postcode":"SK2 7JE","trustlocation":[53.383781,-2.13202]}
{"index":{"_index": "nhs"}
{"name":"Surrey and Borders Partnership NHS Foundation Trust","postcode":"KT22 7AD","trustlocation":[51.296066,-0.333274]}
{"index":{"_index": "nhs"}
{"name":"Sussex Partnership NHS Foundation Trust","postcode":"BN13 3EP","trustlocation":[50.841211,-0.411162]}
{"index":{"_index": "nhs"}
{"name":"Tameside Hospital NHS Foundation Trust","postcode":"OL6 9RW","trustlocation":[53.491533,-2.071434]}
{"index":{"_index": "nhs"}
{"name":"Taunton & Somerset NHS Foundation Trust","postcode":"TA1 5DA","trustlocation":[51.011967,-3.11965]}
{"index":{"_index": "nhs"}
{"name":"Tavistock and Portman NHS Foundation Trust","postcode":"NW3 5BA","trustlocation":[51.546899,-0.175443]}
{"index":{"_index": "nhs"}
{"name":"Tees| Esk and Wear Valleys NHS Foundation Trust","postcode":"DL2 2TS","trustlocation":[54.543558,-1.591277]}
{"index":{"_index": "nhs"}
{"name":"The Black Country Partnership NHS Foundation Trust","postcode":"B70 9PL","trustlocation":[52.519169,-2.017332]}
{"index":{"_index": "nhs"}
{"name":"The Christie NHS Foundation Trust","postcode":"M20 4BX","trustlocation":[53.429771,-2.230125]}
{"index":{"_index": "nhs"}
{"name":"The Clatterbridge Cancer Centre NHS Foundation Trust","postcode":"CH63 4JY","trustlocation":[53.332889,-3.024137]}
{"index":{"_index": "nhs"}
{"name":"The Dudley Group NHS Foundation Trust","postcode":"DY1 2HQ","trustlocation":[52.502947,-2.118518]}
{"index":{"_index": "nhs"}
{"name":"The Hillingdon Hospitals NHS Foundation Trust","postcode":"UB8 3NN","trustlocation":[51.526077,-0.461175]}
{"index":{"_index": "nhs"}
{"name":"The Newcastle Upon Tyne Hospitals NHS Foundation Trust","postcode":"NE7 7DN","trustlocation":[55.002762,-1.593722]}
{"index":{"_index": "nhs"}
{"name":"The Robert Jones and Agnes Hunt Orthopaedic Hospital NHS Foundation Trust","postcode":"SY10 7AG","trustlocation":[52.884217,-3.032686]}
{"index":{"_index": "nhs"}
{"name":"The Rotherham NHS Foundation Trust","postcode":"S60 2UD","trustlocation":[53.413974,-1.342881]}
{"index":{"_index": "nhs"}
{"name":"The Royal Bournemouth and Christchurch Hospitals NHS Foundation Trust","postcode":"BH7 7DW","trustlocation":[50.747485,-1.82052]}
{"index":{"_index": "nhs"}
{"name":"The Royal Marsden NHS Foundation Trust","postcode":"SW3 6JJ","trustlocation":[51.490561,-0.172565]}
{"index":{"_index": "nhs"}
{"name":"The Royal Orthopaedic Hospital NHS Foundation Trust","postcode":"B31 2AP","trustlocation":[52.421137,-1.960828]}
{"index":{"_index": "nhs"}
{"name":"The Walton Centre NHS Foundation Trust","postcode":"L9 7LJ","trustlocation":[53.4664,-2.931001]}
{"index":{"_index": "nhs"}
{"name":"Torbay and South Devon NHS Foundation Trust","postcode":"TQ2 7AA","trustlocation":[50.482322,-3.553805]}
{"index":{"_index": "nhs"}
{"name":"University College London Hospitals NHS Foundation Trust","postcode":"NW1 2PQ","trustlocation":[52.455831,-1.941431]}
{"index":{"_index": "nhs"}
{"name":"University Hospital of South Manchester NHS Foundation Trust","postcode":"M23 9LT","trustlocation":[53.388423,-2.295412]}
{"index":{"_index": "nhs"}
{"name":"University Hospital Southampton NHS Foundation Trust","postcode":"SO16 6YD","trustlocation":[50.933022,-1.435104]}
{"index":{"_index": "nhs"}
{"name":"University Hospitals Birmingham NHS Foundation Trust","postcode":"B15 2PR","trustlocation":[52.473373,-1.930292]}
{"index":{"_index": "nhs"}
{"name":"University Hospitals Bristol NHS Foundation Trust","postcode":"BS1 3NU","trustlocation":[51.459482,-2.593019]}
{"index":{"_index": "nhs"}
{"name":"University Hospitals of Morecambe Bay NHS Foundation Trust","postcode":"LA9 7RG","trustlocation":[54.306708,-2.732552]}
{"index":{"_index": "nhs"}
{"name":"Warrington and Halton Hospitals NHS Foundation Trust","postcode":"WA5 1QG","trustlocation":[53.393977,-2.610718]}
{"index":{"_index": "nhs"}
{"name":"West Midlands Ambulance Service NHS Foundation Trust","postcode":"DY5 1LX","trustlocation":[52.48565,-2.119046]}
{"index":{"_index": "nhs"}
{"name":"West Suffolk NHS Foundation Trust","postcode":"IP33 2QZ","trustlocation":[52.231661,0.709176]}
{"index":{"_index": "nhs"}
{"name":"Western Sussex Hospitals NHS Foundation Trust","postcode":"BN11 2DH","trustlocation":[50.816692,-0.363429]}
{"index":{"_index": "nhs"}
{"name":"Wirral University Teaching Hospital NHS Foundation Trust","postcode":"CH49 5PE","trustlocation":[53.370219,-3.096185]}
{"index":{"_index": "nhs"}
{"name":"\"Wrightington| Wigan and Leigh NHS Foundation Trust\"","postcode":"WN1 2NN","trustlocation":[53.557744,-2.629092]}
{"index":{"_index": "nhs"}
{"name":"Yeovil District Hospital NHS Foundation Trust","postcode":"BA21 4AT","trustlocation":[50.944847,-2.634713]}
{"index":{"_index": "nhs"}
{"name":"York Teaching Hospital NHS Foundation Trust","postcode":"YO31 8HE","trustlocation":[53.968954,-1.084285]}

